[{"OBJECT_NAME":"OBJECT C","OBJECT_ID":"2025-055C","EPOCH":"2026-03-09T23:32:37.740768","MEAN_MOTION":15.18796405,"ECCENTRICITY":0.00122942,"INCLINATION":97.6357,"RA_OF_ASC_NODE":209.5356,"ARG_OF_PERICENTER":140.8519,"MEAN_ANOMALY":219.3606,"EPHEMERIS_TYPE":0,"CLASSIFICATION_TYPE":"U","NORAD_CAT_ID":63293,"ELEMENT_SET_NO":999,"REV_AT_EPOCH":5407,"BSTAR":0.00071493632,"MEAN_MOTION_DOT":0.00014849,"MEAN_MOTION_DDOT":0},{"OBJECT_NAME":"COSMOS 2251 DEB","OBJECT_ID":"1993-036BUL","EPOCH":"2026-03-05T09:43:49.078560","MEAN_MOTION":15.21602098,"ECCENTRICITY":0.00125938,"INCLINATION":74.0076,"RA_OF_ASC_NODE":92.2729,"ARG_OF_PERICENTER":267.7507,"MEAN_ANOMALY":157.3736,"EPHEMERIS_TYPE":0,"CLASSIFICATION_TYPE":"U","NORAD_CAT_ID":39554,"ELEMENT_SET_NO":999,"REV_AT_EPOCH":65637,"BSTAR":0.0036804399,"MEAN_MOTION_DOT":0.00084191,"MEAN_MOTION_DDOT":0}]
